"{\n    \"CCSDS_OMM_VERS\": \"2.0\",\n    \"COMMENT\": \"GENERATED VIA SPACE-TRACK.ORG API\",\n    \"CREATION_DATE\": \"2025-08-31T02:26:50\",\n    \"ORIGINATOR\": \"18 SPCS\",\n    \"OBJECT_NAME\": \"NAVSTAR 59 (USA 192)\",\n    \"OBJECT_ID\": \"2006-052A\",\n    \"CENTER_NAME\": \"EARTH\",\n    \"REF_FRAME\": \"TEME\",\n    \"TIME_SYSTEM\": \"UTC\",\n    \"MEAN_ELEMENT_THEORY\": \"SGP4\",\n    \"EPOCH\": \"2025-08-29T17:59:20.465952\",\n    \"MEAN_MOTION\": \"2.0056743228\",\n    \"ECCENTRICITY\": \"0.008483696\",\n    \"INCLINATION\": \"54.999838\",\n    \"RA_OF_ASC_NODE\": \"225.56027\",\n    \"ARG_OF_PERICENTER\": \"86.903875\",\n    \"MEAN_ANOMALY\": \"274.05971\",\n    \"EPHEMERIS_TYPE\": \"0\",\n    \"CLASSIFICATION_TYPE\": \"U\",\n    \"NORAD_CAT_ID\": \"29601\",\n    \"ELEMENT_SET_NO\": \"999\",\n    \"REV_AT_EPOCH\": \"13756\",\n    \"BSTAR\": \"0\",\n    \"MEAN_MOTION_DOT\": \"0.000000614682\",\n    \"MEAN_MOTION_DDOT\": \"0\",\n    \"TLE_LINE0\": \"0 NAVSTAR 59 (USA 192)\",\n    \"TLE_LINE1\": \"1 29601U 06052A   25241.74954243  .00000061  00000-0  00000-0 0  9990\",\n    \"TLE_LINE2\": \"2 29601  54.9998 225.5603 0084837  86.9039 274.0597  2.00567432137567\",\n    \"SEMIMAJOR_AXIS\": \"26560.010\",\n    \"PERIOD\": \"717.963\",\n    \"APOAPSIS\": \"20407.202\",\n    \"PERIAPSIS\": \"19956.548\",\n    \"OBJECT_TYPE\": \"PAYLOAD\",\n    \"DECAYED\": \"0\"\n}"